CCSDS_OMM_VERS = 2.0
CREATION_DATE  = 
ORIGINATOR     = 

OBJECT_NAME    = STARLINK-36939
OBJECT_ID      = 2026-040V
CENTER_NAME    = EARTH
REF_FRAME      = TEME
TIME_SYSTEM    = UTC
MEAN_ELEMENT_THEORY = SGP/SGP4

EPOCH          = 2026-03-28T22:00:01.999584
MEAN_MOTION    = 15.64579781
ECCENTRICITY   = .00015842
INCLINATION    = 97.2851
RA_OF_ASC_NODE = 37.3235
ARG_OF_PERICENTER = 106.5336
MEAN_ANOMALY   = 209.8438

EPHEMERIS_TYPE = 0
CLASSIFICATION_TYPE = U
NORAD_CAT_ID   = 68034
ELEMENT_SET_NO = 999
REV_AT_EPOCH   = 552
BSTAR          = -.23167518E-1
MEAN_MOTION_DOT = -.1968267E-1
MEAN_MOTION_DDOT = 0

CCSDS_OMM_VERS = 2.0
CREATION_DATE  = 
ORIGINATOR     = 

OBJECT_NAME    = STARLINK-36943
OBJECT_ID      = 2026-040W
CENTER_NAME    = EARTH
REF_FRAME      = TEME
TIME_SYSTEM    = UTC
MEAN_ELEMENT_THEORY = SGP/SGP4

EPOCH          = 2026-03-28T20:25:52.686336
MEAN_MOTION    = 15.75221860
ECCENTRICITY   = .00026326
INCLINATION    = 97.2854
RA_OF_ASC_NODE = 37.2791
ARG_OF_PERICENTER = 53.5001
MEAN_ANOMALY   = 306.6507

EPHEMERIS_TYPE = 0
CLASSIFICATION_TYPE = U
NORAD_CAT_ID   = 68035
ELEMENT_SET_NO = 999
REV_AT_EPOCH   = 550
BSTAR          = .73830301E-3
MEAN_MOTION_DOT = .111609E-2
MEAN_MOTION_DDOT = 0

CCSDS_OMM_VERS = 2.0
CREATION_DATE  = 
ORIGINATOR     = 

OBJECT_NAME    = STARLINK-36906
OBJECT_ID      = 2026-040X
CENTER_NAME    = EARTH
REF_FRAME      = TEME
TIME_SYSTEM    = UTC
MEAN_ELEMENT_THEORY = SGP/SGP4

EPOCH          = 2026-03-28T22:00:01.999584
MEAN_MOTION    = 15.63159501
ECCENTRICITY   = .00017492
INCLINATION    = 97.2845
RA_OF_ASC_NODE = 37.3165
ARG_OF_PERICENTER = 105.2534
MEAN_ANOMALY   = 193.3826

EPHEMERIS_TYPE = 0
CLASSIFICATION_TYPE = U
NORAD_CAT_ID   = 68036
ELEMENT_SET_NO = 999
REV_AT_EPOCH   = 552
BSTAR          = -.24534839E-1
MEAN_MOTION_DOT = -.1970282E-1
MEAN_MOTION_DDOT = 0

CCSDS_OMM_VERS = 2.0
CREATION_DATE  = 
ORIGINATOR     = 

OBJECT_NAME    = STARLINK-36388
OBJECT_ID      = 2026-040Y
CENTER_NAME    = EARTH
REF_FRAME      = TEME
TIME_SYSTEM    = UTC
MEAN_ELEMENT_THEORY = SGP/SGP4

EPOCH          = 2026-03-28T20:26:22.707744
MEAN_MOTION    = 15.75185605
ECCENTRICITY   = .00017066
INCLINATION    = 97.2861
RA_OF_ASC_NODE = 37.2761
ARG_OF_PERICENTER = 84.1748
MEAN_ANOMALY   = 275.9712

EPHEMERIS_TYPE = 0
CLASSIFICATION_TYPE = U
NORAD_CAT_ID   = 68037
ELEMENT_SET_NO = 999
REV_AT_EPOCH   = 437
BSTAR          = .13017632E-2
MEAN_MOTION_DOT = .198583E-2
MEAN_MOTION_DDOT = 0

CCSDS_OMM_VERS = 2.0
CREATION_DATE  = 
ORIGINATOR     = 

OBJECT_NAME    = STARLINK-36895
OBJECT_ID      = 2026-040Z
CENTER_NAME    = EARTH
REF_FRAME      = TEME
TIME_SYSTEM    = UTC
MEAN_ELEMENT_THEORY = SGP/SGP4

EPOCH          = 2026-03-28T22:00:01.999584
MEAN_MOTION    = 15.75215879
ECCENTRICITY   = .00014043
INCLINATION    = 97.2863
RA_OF_ASC_NODE = 37.3377
ARG_OF_PERICENTER = 81.8478
MEAN_ANOMALY   = 274.8039

EPHEMERIS_TYPE = 0
CLASSIFICATION_TYPE = U
NORAD_CAT_ID   = 68038
ELEMENT_SET_NO = 999
REV_AT_EPOCH   = 552
BSTAR          = -.52371089E-3
MEAN_MOTION_DOT = -.77627E-3
MEAN_MOTION_DDOT = 0

CCSDS_OMM_VERS = 2.0
CREATION_DATE  = 
ORIGINATOR     = 

OBJECT_NAME    = STARLINK-36373
OBJECT_ID      = 2026-040AA
CENTER_NAME    = EARTH
REF_FRAME      = TEME
TIME_SYSTEM    = UTC
MEAN_ELEMENT_THEORY = SGP/SGP4

EPOCH          = 2026-03-28T22:00:01.999584
MEAN_MOTION    = 15.62429472
ECCENTRICITY   = .00018215
INCLINATION    = 97.2849
RA_OF_ASC_NODE = 37.3097
ARG_OF_PERICENTER = 104.8907
MEAN_ANOMALY   = 177.9483

EPHEMERIS_TYPE = 0
CLASSIFICATION_TYPE = U
NORAD_CAT_ID   = 68039
ELEMENT_SET_NO = 999
REV_AT_EPOCH   = 547
BSTAR          = -.25296695E-1
MEAN_MOTION_DOT = -.1973673E-1
MEAN_MOTION_DDOT = 0

CCSDS_OMM_VERS = 2.0
CREATION_DATE  = 
ORIGINATOR     = 

OBJECT_NAME    = STARLINK-36711
OBJECT_ID      = 2026-041A
CENTER_NAME    = EARTH
REF_FRAME      = TEME
TIME_SYSTEM    = UTC
MEAN_ELEMENT_THEORY = SGP/SGP4

EPOCH          = 2026-03-27T23:29:26.801088
MEAN_MOTION    = 15.75330431
ECCENTRICITY   = .00011038
INCLINATION    = 53.1584
RA_OF_ASC_NODE = 331.0342
ARG_OF_PERICENTER = 48.3262
MEAN_ANOMALY   = 311.7853

EPHEMERIS_TYPE = 0
CLASSIFICATION_TYPE = U
NORAD_CAT_ID   = 68040
ELEMENT_SET_NO = 999
REV_AT_EPOCH   = 410
BSTAR          = .1773546E-2
MEAN_MOTION_DOT = .281592E-2
MEAN_MOTION_DDOT = 0

CCSDS_OMM_VERS = 2.0
CREATION_DATE  = 
ORIGINATOR     = 

OBJECT_NAME    = STARLINK-36825
OBJECT_ID      = 2026-041B
CENTER_NAME    = EARTH
REF_FRAME      = TEME
TIME_SYSTEM    = UTC
MEAN_ELEMENT_THEORY = SGP/SGP4

EPOCH          = 2026-03-28T22:36:03.647232
MEAN_MOTION    = 15.80851712
ECCENTRICITY   = .00013084
INCLINATION    = 53.1589
RA_OF_ASC_NODE = 325.6410
ARG_OF_PERICENTER = 28.6015
MEAN_ANOMALY   = 331.5080

EPHEMERIS_TYPE = 0
CLASSIFICATION_TYPE = U
NORAD_CAT_ID   = 68041
ELEMENT_SET_NO = 999
REV_AT_EPOCH   = 426
BSTAR          = .59379304E-3
MEAN_MOTION_DOT = .117994E-2
MEAN_MOTION_DDOT = 0

CCSDS_OMM_VERS = 2.0
CREATION_DATE  = 
ORIGINATOR     = 

OBJECT_NAME    = STARLINK-36925
OBJECT_ID      = 2026-041C
CENTER_NAME    = EARTH
REF_FRAME      = TEME
TIME_SYSTEM    = UTC
MEAN_ELEMENT_THEORY = SGP/SGP4

EPOCH          = 2026-03-28T20:48:30.536640
MEAN_MOTION    = 15.76218484
ECCENTRICITY   = .00026148
INCLINATION    = 53.1574
RA_OF_ASC_NODE = 326.6189
ARG_OF_PERICENTER = 254.5119
MEAN_ANOMALY   = 105.5613

EPHEMERIS_TYPE = 0
CLASSIFICATION_TYPE = U
NORAD_CAT_ID   = 68042
ELEMENT_SET_NO = 999
REV_AT_EPOCH   = 424
BSTAR          = .29863944E-2
MEAN_MOTION_DOT = .506868E-2
MEAN_MOTION_DDOT = 0

CCSDS_OMM_VERS = 2.0
CREATION_DATE  = 
ORIGINATOR     = 

OBJECT_NAME    = STARLINK-36902
OBJECT_ID      = 2026-041D
CENTER_NAME    = EARTH
REF_FRAME      = TEME
TIME_SYSTEM    = UTC
MEAN_ELEMENT_THEORY = SGP/SGP4

EPOCH          = 2026-03-28T22:00:01.999584
MEAN_MOTION    = 15.75267087
ECCENTRICITY   = .00010328
INCLINATION    = 53.1594
RA_OF_ASC_NODE = 325.8465
ARG_OF_PERICENTER = 97.5316
MEAN_ANOMALY   = 81.9102

EPHEMERIS_TYPE = 0
CLASSIFICATION_TYPE = U
NORAD_CAT_ID   = 68043
ELEMENT_SET_NO = 999
REV_AT_EPOCH   = 546
BSTAR          = -.49304134E-3
MEAN_MOTION_DOT = -.75635E-3
MEAN_MOTION_DDOT = 0

CCSDS_OMM_VERS = 2.0
CREATION_DATE  = 
ORIGINATOR     = 

OBJECT_NAME    = STARLINK-36966
OBJECT_ID      = 2026-041E
CENTER_NAME    = EARTH
REF_FRAME      = TEME
TIME_SYSTEM    = UTC
MEAN_ELEMENT_THEORY = SGP/SGP4

EPOCH          = 2026-03-28T22:13:49.020384
MEAN_MOTION    = 15.75247754
ECCENTRICITY   = .00009741
INCLINATION    = 53.1593
RA_OF_ASC_NODE = 326.2761
ARG_OF_PERICENTER = 85.4039
MEAN_ANOMALY   = 274.7093

EPHEMERIS_TYPE = 0
CLASSIFICATION_TYPE = U
NORAD_CAT_ID   = 68044
ELEMENT_SET_NO = 999
REV_AT_EPOCH   = 425
BSTAR          = .26907584E-2
MEAN_MOTION_DOT = .433882E-2
MEAN_MOTION_DDOT = 0

CCSDS_OMM_VERS = 2.0
CREATION_DATE  = 
ORIGINATOR     = 

OBJECT_NAME    = STARLINK-36864
OBJECT_ID      = 2026-041F
CENTER_NAME    = EARTH
REF_FRAME      = TEME
TIME_SYSTEM    = UTC
MEAN_ELEMENT_THEORY = SGP/SGP4

EPOCH          = 2026-03-28T17:39:14.321088
MEAN_MOTION    = 15.75486828
ECCENTRICITY   = .0000087
INCLINATION    = 53.1592
RA_OF_ASC_NODE = 327.2199
ARG_OF_PERICENTER = 211.3366
MEAN_ANOMALY   = 148.7649

EPHEMERIS_TYPE = 0
CLASSIFICATION_TYPE = U
NORAD_CAT_ID   = 68045
ELEMENT_SET_NO = 999
REV_AT_EPOCH   = 422
BSTAR          = .30046E-2
MEAN_MOTION_DOT = .493202E-2
MEAN_MOTION_DDOT = 0

