STARLINK-36939          
1 68034U 26040V   26087.91668981 -.01968267  00000+0 -23168-1 0  9995
2 68034  97.2851  37.3235 0001584 106.5336 209.8438 15.64579781  5529
STARLINK-36943          
1 68035U 26040W   26087.85130424  .00111609  00000+0  73830-3 0  9995
2 68035  97.2854  37.2791 0002632  53.5001 306.6507 15.75221860  5509
STARLINK-36906          
1 68036U 26040X   26087.91668981 -.01970282  00000+0 -24535-1 0  9996
2 68036  97.2845  37.3165 0001749 105.2534 193.3826 15.63159501  5526
STARLINK-36388          
1 68037U 26040Y   26087.85165171  .00198583  00000+0  13018-2 0  9991
2 68037  97.2861  37.2761 0001706  84.1748 275.9712 15.75185605  4371
STARLINK-36895          
1 68038U 26040Z   26087.91668981 -.00077627  00000+0 -52371-3 0  9999
2 68038  97.2863  37.3377 0001404  81.8478 274.8039 15.75215879  5522
STARLINK-36373          
1 68039U 26040AA  26087.91668981 -.01973673  00000+0 -25297-1 0  9992
2 68039  97.2849  37.3097 0001821 104.8907 177.9483 15.62429472  5474
STARLINK-36711          
1 68040U 26041A   26086.97878242  .00281592  00000+0  17735-2 0  9991
2 68040  53.1584 331.0342 0001103  48.3262 311.7853 15.75330431  4107
STARLINK-36825          
1 68041U 26041B   26087.94170888  .00117994  00000+0  59379-3 0  9996
2 68041  53.1589 325.6410 0001308  28.6015 331.5080 15.80851712  4267
STARLINK-36925          
1 68042U 26041C   26087.86702010  .00506868  00000+0  29864-2 0  9993
2 68042  53.1574 326.6189 0002614 254.5119 105.5613 15.76218484  4249
STARLINK-36902          
1 68043U 26041D   26087.91668981 -.00075635  00000+0 -49304-3 0  9995
2 68043  53.1594 325.8465 0001032  97.5316  81.9102 15.75267087  5464
STARLINK-36966          
1 68044U 26041E   26087.92626181  .00433882  00000+0  26908-2 0  9997
2 68044  53.1593 326.2761 0000974  85.4039 274.7093 15.75247754  4256
STARLINK-36864          
1 68045U 26041F   26087.73558242  .00493202  00000+0  30046-2 0  9999
2 68045  53.1592 327.2199 0000087 211.3366 148.7649 15.75486828  4221
